[{"OBJECT_NAME":"STARLINK-31739","OBJECT_ID":"2024-091P","EPOCH":"2026-03-09T06:48:48.169440","MEAN_MOTION":15.30194066,"ECCENTRICITY":0.0001211,"INCLINATION":53.1623,"RA_OF_ASC_NODE":25.8419,"ARG_OF_PERICENTER":82.7777,"MEAN_ANOMALY":277.3361,"EPHEMERIS_TYPE":0,"CLASSIFICATION_TYPE":"U","NORAD_CAT_ID":59766,"ELEMENT_SET_NO":999,"REV_AT_EPOCH":10298,"BSTAR":-2.3420707e-5,"MEAN_MOTION_DOT":-1.053e-5,"MEAN_MOTION_DDOT":0},{"OBJECT_NAME":"LIZZIESAT-2 (LS-2)","OBJECT_ID":"2024-247G","EPOCH":"2026-03-09T11:47:37.199328","MEAN_MOTION":15.28222796,"ECCENTRICITY":0.00040927,"INCLINATION":44.9909,"RA_OF_ASC_NODE":117.0823,"ARG_OF_PERICENTER":327.5136,"MEAN_ANOMALY":32.5495,"EPHEMERIS_TYPE":0,"CLASSIFICATION_TYPE":"U","NORAD_CAT_ID":62383,"ELEMENT_SET_NO":999,"REV_AT_EPOCH":6771,"BSTAR":0.00034516624,"MEAN_MOTION_DOT":9.388e-5,"MEAN_MOTION_DDOT":0}]
