STARLINK-31739          
1 59766U 24091P   26068.28389085 -.00001053  00000+0 -23421-4 0  9990
2 59766  53.1623  25.8419 0001211  82.7777 277.3361 15.30194066102981
LIZZIESAT-2 (LS-2)      
1 62383U 24247G   26068.49140277  .00009388  00000+0  34517-3 0  9997
2 62383  44.9909 117.0823 0004092 327.5136  32.5495 15.28222796 67716
